PHASE 3B (AO-10)        
1 14129U 83058B   21021.82556569  .00000147  00000-0  00000-0 0  9995
2 14129  25.7887 179.0897 6065622 303.3308  12.4702  2.05866858254908
UOSAT 2 (UO-11)         
1 14781U 84021B   21025.51334965  .00000130  00000-0  22015-4 0  9990
2 14781  97.5900  32.4197 0008276 181.4383 178.6809 14.83240403964748
LUSAT (LO-19)           
1 20442U 90005G   21026.11527047  .00000006  00000-0  18698-4 0  9996
2 20442  98.7228 340.4375 0011042 215.6633 144.3814 14.32974500620503
EYESAT A (AO-27)        
1 22825U 93061C   21026.00133525  .00000011  00000-0  22185-4 0  9992
2 22825  98.9240  40.0656 0009477  89.7326 270.4942 14.30104450425894
ITAMSAT (IO-26)         
1 22826U 93061D   21025.79555166  .00000006  00000-0  20118-4 0  9995
2 22826  98.9182  39.7774 0009982  79.2285 281.0020 14.30441965425839
RADIO ROSTO (RS-15)     
1 23439U 94085A   21025.91194130 -.00000037  00000-0  15882-3 0  9993
2 23439  64.8162 246.4934 0156472   0.8868 359.2306 11.27570216 74266
JAS-2 (FO-29)           
1 24278U 96046B   21026.18242257 -.00000037  00000-0 -29278-5 0  9995
2 24278  98.5836 112.9224 0350759 158.0407 203.6192 13.53102238207256
TECHSAT 1B (GO-32)      
1 25397U 98043D   21025.80991177 -.00000022  00000-0  98398-5 0  9999
2 25397  98.7554 331.8820 0002144 114.2731 245.8671 14.23699929171197
ISS (ZARYA)             
1 25544U 98067A   21026.29455175  .00001781  00000-0  40614-4 0  9995
2 25544  51.6464 324.5349 0002308 292.1434 166.6739 15.48892138266603
PCSAT (NO-44)           
1 26931U 01043C   21025.69928205 -.00000010  00000-0  27967-4 0  9997
2 26931  67.0516 288.8534 0007404 271.1841  88.8412 14.30603907  8827
SAUDISAT 1C (SO-50)     
1 27607U 02058C   21026.12628641  .00000037  00000-0  25655-4 0  9995
2 27607  64.5556  53.5506 0029409  83.8856 276.5596 14.75705512973715
CUTE-1 (CO-55)          
1 27844U 03031E   21026.02071729  .00000079  00000-0  55164-4 0  9992
2 27844  98.6817  36.3830 0010710 127.8163 232.3986 14.22284265911770
CUBESAT XI-IV (CO-57)   
1 27848U 03031J   21025.76058502  .00000056  00000-0  45100-4 0  9994
2 27848  98.6878  36.6951 0010432 140.3872 219.8070 14.21864588911535
MOZHAYETS 4 (RS-22)     
1 27939U 03042A   21026.03022587  .00000064  00000-0  20212-4 0  9998
2 27939  98.1169 164.3217 0013045  16.4889 343.6721 14.66936242926645
CUBESAT XI-V            
1 28895U 05043F   21025.84350865  .00000158  00000-0  39261-4 0  9992
2 28895  98.0364 162.3950 0015585 301.7794  58.1890 14.63857294813142
CUTE-1.7+APD II (CO-65) 
1 32785U 08021C   21026.10455366  .00000351  00000-0  43220-4 0  9991
2 32785  97.5955  10.6134 0014363 112.5497 247.7242 14.88618149691068
DELFI-C3 (DO-64)        
1 32789U 08021G   21025.81912448  .00001696  00000-0  11279-3 0  9992
2 32789  97.3940  66.5975 0010330 272.7466  87.2580 15.08424653695325
SEEDS II (CO-66)        
1 32791U 08021J   21025.51584113  .00000572  00000-0  62702-4 0  9996
2 32791  97.5582  16.0840 0014742  83.2676 277.0220 14.91255782691559
YUBILEINY (RS-30)       
1 32953U 08025A   21026.01396378  .00000028  00000-0  12906-3 0  9996
2 32953  82.5053 139.5243 0018489 287.3825  72.5233 12.43099542575287
KKS-1 (KISEKI)          
1 33499U 09002H   21025.87132485  .00000140  00000-0  28398-4 0  9996
2 33499  98.2887 252.4808 0009994 130.7257 229.4821 14.75610307645385
SWISSCUBE               
1 35932U 09051B   21026.08278708  .00000165  00000-0  48237-4 0  9998
2 35932  98.6068 221.5554 0007949 157.3840 202.7709 14.56480385602270
BEESAT-1                
1 35933U 09051C   21025.77957956  .00000148  00000-0  44224-4 0  9996
2 35933  98.6046 223.0972 0005920 168.1971 191.9366 14.56545159602268
ITUPSAT1                
1 35935U 09051E   21025.49283667  .00000110  00000-0  36282-4 0  9992
2 35935  98.6151 222.9665 0008196 172.2743 187.8582 14.55682834601977
XIWANG-1 (HOPE-1)       
1 36122U 09072B   21025.71787102 -.00000033  00000-0  24331-4 0  9999
2 36122 100.1151  12.4022 0008149  72.1639 288.0363 13.16358653534111
JUGNU                   
1 37839U 11058B   21025.65621742  .00000315  00000-0  26172-4 0  9999
2 37839  19.9630  15.2186 0018718 318.4993 197.2073 14.12701423480247
SRMSAT                  
1 37841U 11058D   21025.84103963  .00000279  00000-0  81334-5 0  9994
2 37841  19.9727  83.0220 0011839 166.0714 349.9244 14.10683528479566
M-CUBED & EXP-1 PRIME   
1 37855U 11061F   21026.11414048  .00002490  00000-0  12734-3 0  9996
2 37855 101.7259 235.6982 0168486 133.8697 227.6577 15.07128957505203
STRAND-1                
1 39090U 13009E   21026.11166765  .00000066  00000-0  38259-4 0  9991
2 39090  98.4365 231.5697 0008895 349.3794  10.7203 14.35165632414648
SOMP                    
1 39134U 13015E   21026.08133058  .00001957  00000-0  94364-4 0  9991
2 39134  64.8623 275.2245 0011539 218.9858 141.0439 15.21913836429925
BEESAT-3                
1 39135U 13015F   21026.11596236  .00001442  00000-0  78242-4 0  9993
2 39135  64.8673 302.0119 0015846 206.0257 154.0075 15.18858450429416
BEESAT-2                
1 39136U 13015G   21025.79161729  .00001713  00000-0  92270-4 0  9990
2 39136  64.8744 308.8734 0028781 262.6262  97.1593 15.18237290428851
ZACUBE-1 (TSHEPISOSAT)  
1 39417U 13066B   21025.73346275  .00000337  00000-0  48418-4 0  9999
2 39417  97.5801  17.5689 0057203 269.1153  90.3506 14.81415603387943
GOMX-1                  
1 39430U 13066Q   21026.07624660  .00000130  00000-0  32736-4 0  9996
2 39430  97.8091 317.3646 0149981 202.9047 156.5422 14.59524998382274
CUBEBUG-2 (LO-74)       
1 39440U 13066AA  21026.17585234  .00000404  00000-0  62767-4 0  9992
2 39440  97.6581   2.7021 0079461 338.2373  21.5468 14.76148840386631
FUNCUBE-1 (AO-73)       
1 39444U 13066AE  21025.93891332  .00000391  00000-0  54113-4 0  9999
2 39444  97.5722  20.0926 0056296 259.2937 100.1935 14.82301076386325
UWE-3                   
1 39446U 13066AG  21025.51249022  .00000302  00000-0  46630-4 0  9995
2 39446  97.6207   9.1402 0068610 306.2441  53.2443 14.78683163385381
SPROUT                  
1 39770U 14029E   21025.74234577  .00000790  00000-0  91786-4 0  9992
2 39770  97.9050 137.2840 0008101 322.6760  37.3923 14.88141445362119
UNISAT-6                
1 40012U 14033C   21025.83505555  .00000251  00000-0  44449-4 0  9991
2 40012  97.6866 235.6395 0058270   2.9272 357.2267 14.74231559355183
DUCHIFAT-1              
1 40021U 14033M   21026.08403897  .00000598  00000-0  66127-4 0  9996
2 40021  97.9611 324.8955 0011390 275.1580  84.8338 14.91157129359067
QB50P1                  
1 40025U 14033R   21025.78921623  .00000405  00000-0  48666-4 0  9993
2 40025  97.9268 316.1795 0011090 290.9170  69.0860 14.89313250358185
NUDT-PHONESAT           
1 40900U 15049B   21026.00565490  .00002923  00000-0  11862-3 0  9999
2 40900  97.4262  41.1200 0010609 283.3686 128.2881 15.25363520297106
ZDPS 2A                 
1 40901U 15049C   21025.99240935  .00001605  00000-0  79948-4 0  9997
2 40901  97.4635  34.8464 0012119 324.6340 119.2645 15.18962730296349
ZDPS 2B                 
1 40902U 15049D   21026.04032212  .00001588  00000-0  79138-4 0  9993
2 40902  97.4653  32.1794 0012121 321.5322 123.6144 15.18978657296322
XW-2A                   
1 40903U 15049E   21026.05045248  .00002573  00000-0  57713-4 0  9998
2 40903  97.2592  80.8953 0013054 165.9948 254.2267 15.44265780300812
KAITUO 1A               
1 40904U 15049F   21026.05060118  .00000682  00000-0  38963-4 0  9997
2 40904  97.4835  29.8208 0013843 338.1203 106.0149 15.15976459295967
2015-049G               
1 40905U 15049G   21026.03948834  .00000622  00000-0  37017-4 0  9999
2 40905  97.4949  26.9277 0014736 336.2250  96.4697 15.14803737295777
XW-2C                   
1 40906U 15049H   21026.04345400  .00000863  00000-0  47728-4 0  9998
2 40906  97.4831  30.2305 0013729 327.6535 108.5050 15.16444873295984
XW-2D                   
1 40907U 15049J   21025.99080022  .00001028  00000-0  55768-4 0  9995
2 40907  97.4820  29.9303 0013031 324.7647  60.6708 15.16726493296007
LILACSAT-2              
1 40908U 15049K   21026.01800686  .00000265  00000-0  18061-4 0  9993
2 40908  97.5001  28.0040 0015070 337.9475  96.3856 15.14262097295673
XW-2F                   
1 40910U 15049M   21025.99932659  .00001459  00000-0  73838-4 0  9997
2 40910  97.4718  32.8338 0013073 310.7824 101.5177 15.18547282296101
XW-2B                   
1 40911U 15049N   21026.12512106  .00001071  00000-0  58108-4 0  9998
2 40911  97.4828  30.7577 0012763 324.9798  99.8390 15.16648122295915
KAITUO 1B               
1 40912U 15049P   21025.96392838  .00001488  00000-0  70100-4 0  9996
2 40912  97.4474  37.1211 0012933 282.6469 107.6008 15.21019120296532
TIANWANG 1C (TW-1C)     
1 40926U 15051B   21025.99752265  .00194985  15913-4  61325-3 0  9997
2 40926  97.0503  87.3270 0001794 299.9592 144.6722 15.91387217302027
TIANWANG 1A (TW-1A)     
1 40928U 15051D   21026.04281075  .00003981  00000-0  87993-4 0  9994
2 40928  97.0918  54.4062 0011809  94.1408 295.0758 15.44340853299705
LAPAN-A2                
1 40931U 15052B   21025.96578091  .00000697  00000-0  80654-5 0  9995
2 40931   5.9979 188.5790 0012374 187.4582 172.5681 14.76660175288201
E-ST@R-II               
1 41459U 16025D   21026.05935233  .00002744  00000-0  13821-3 0  9993
2 41459  98.1221 154.0493 0162681 181.8713 178.1921 15.07324048260963
AAUSAT 4                
1 41460U 16025E   21026.03102951  .00005335  00000-0  25439-3 0  9993
2 41460  98.1187 157.2182 0150390 168.1414 192.3440 15.10059648261214
NUSAT-1 (FRESCO)        
1 41557U 16033B   21026.05008102  .00001578  00000-0  58943-4 0  9996
2 41557  97.3968 120.8650 0013730  27.1258 323.1013 15.28801952259760
BEESAT-4                
1 41619U 16040W   21026.08972105  .00002674  00000-0  11032-3 0  9994
2 41619  97.2914  86.0722 0012474 111.9940 248.2625 15.24832619243316
